INTELSAT 23 (IS-23)     
1 38867U 12057A   26188.77616332 -.00000269  00000+0  00000+0 0  9993
2 38867   0.0036  19.4094 0000240 166.3553 326.3994  1.00269005 50166
FM-6                    
1 39360U 13058A   26188.69235480  .00000000  00000+0  00000+0 0  9998
2 39360   0.0429  67.7872 0002843 116.5710 234.2159  1.00270730 46278
INTELSAT 30 (IS-30)     
1 40271U 14062A   26188.55391802 -.00000135  00000+0  00000+0 0  9993
2 40271   0.0162  45.6651 0001325 344.1934   0.0276  1.00269626  6992
DIRECTV 14              
1 40333U 14078B   26188.62438117 -.00000110  00000+0  00000+0 0  9991
2 40333   0.0105  36.3379 0000237 306.2450  68.5441  1.00273130 42241
DIRECTV 15              
1 40663U 15026A   26188.69495483 -.00000087  00000+0  00000+0 0  9990
2 40663   0.0154  67.0460 0000569 280.7037  85.2252  1.00268937 40667
SKY MEXICO-1            
1 40664U 15026B   26188.55712470 -.00000219  00000+0  00000+0 0  9991
2 40664   0.0158 305.7926 0002478 181.9321 279.5699  1.00270671 40650
INTELSAT 34 (IS-34)     
1 40874U 15039A   26188.70422821 -.00000270  00000+0  00000+0 0  9990
2 40874   0.0116 335.6439 0000326  31.7899 116.2693  1.00270264 39848
INTELSAT 31 (IS-31)     
1 41581U 16035A   26187.27078995 -.00000136  00000+0  00000+0 0  9994
2 41581   0.0403 211.4121 0000829  55.4380  19.8435  1.00270733 36871
INTELSAT 36 (IS-36)     
1 41747U 16053A   26188.80017597 -.00000012  00000+0  00000+0 0  9992
2 41747   0.0091  10.2892 0000975  27.8198 244.1989  1.00285795 36163
INTELSAT 32E (IS-32E)   
1 41945U 17007B   26188.70682822 -.00000254  00000+0  00000+0 0  9998
2 41945   0.0172 342.1462 0000722 358.9200 155.8895  1.00269388 34437
INTELSAT 35E (IS-35E)   
1 42818U 17041A   26188.70856154  .00000000  00000+0  00000+0 0  9995
2 42818   0.0210  22.2257 0001632  86.0046  38.0382  1.00269717 33029
INTELSAT 37E (IS-37E)   
1 42950U 17059A   26188.71176823  .00000000  00000+0  00000+0 0  9990
2 42950   0.0236  36.8321 0002520  78.1074  48.9785  1.00269819 32273
AZERSPACE 2 (IS-38)     
1 43632U 18074A   26188.72424975  .00000000  00000+0  00000+0 0  9991
2 43632   0.0221  27.2654 0001236  91.2773 112.9850  1.00270851 28653
HORIZONS-3E             
1 43633U 18074B   26187.89338350 -.00000016  00000+0  00000+0 0  9998
2 43633   0.0376 227.4998 0000860  64.0191 123.9783  1.00269288 28530
AT&T T-16               
1 44333U 19034A   26188.62412117 -.00000100  00000+0  00000+0 0  9993
2 44333   0.0146  66.9323 0000472 242.0117 100.4644  1.00268804 25835
INTELSAT 39 (IS-39)     
1 44476U 19049B   26188.37105389  .00000048  00000+0  00000+0 0  9999
2 44476   0.0158   9.7580 0000504 307.4421 163.6784  1.00274979 25337
GALAXY 30 (G-30)        
1 46114U 20056C   26187.76375413  .00000052  00000+0  00000+0 0  9994
2 46114   0.0206  38.7570 0002186  67.2773 328.6685  1.00270907 21484
GALAXY 33 (G-33)        
1 54026U 22128A   26188.68897478  .00000094  00000+0  00000+0 0  9995
2 54026   0.0132 319.7629 0001771 147.6047 293.3254  1.00273136 13945
GALAXY 34 (G-34)        
1 54027U 22128B   26187.69175730  .00000000  00000+0  00000+0 0  9993
2 54027   0.0172  18.6774 0001829 102.5440 283.4893  1.00275248 14101
GALAXY 31 (G-31)        
1 54243U 22153A   26188.62013448  .00000028  00000+0  00000+0 0  9992
2 54243   0.0146 287.8146 0001296 179.7967 280.2244  1.00272439  7334
GALAXY 32 (G-32)        
1 54244U 22153B   26188.05572245 -.00000159  00000+0  00000+0 0  9991
2 54244   0.0098  22.5735 0001622  26.6946 164.8256  1.00270818 13346
GALAXY 35 (G-35)        
1 54741U 22170A   26188.62559450 -.00000147  00000+0  00000+0 0  9995
2 54741   0.0237  90.2369 0002057  19.6523 307.8160  1.00271515 13094
GALAXY 36 (G-36)        
1 54742U 22170B   26188.62646118 -.00000170  00000+0  00000+0 0  9990
2 54742   0.0243 132.4340 0002639 325.8640 323.8193  1.00270868 12978
GALAXY 37 (G-37)        
1 57493U 23112A   26188.69018814  .00000063  00000+0  00000+0 0  9996
2 57493   0.0190  36.5793 0001845  77.8615 292.6849  1.00272376 10745
